1 24960U 97054A   25112.61014402 -.00000056  00000-0 -33072-2 0  9995
2 24960  64.3824 290.7829 6029417 287.2304  17.8984  3.18686942241159
